OBJECT_NAME,OBJECT_ID,EPOCH,MEAN_MOTION,ECCENTRICITY,INCLINATION,RA_OF_ASC_NODE,ARG_OF_PERICENTER,MEAN_ANOMALY,EPHEMERIS_TYPE,CLASSIFICATION_TYPE,NORAD_CAT_ID,ELEMENT_SET_NO,REV_AT_EPOCH,BSTAR,MEAN_MOTION_DOT,MEAN_MOTION_DDOT
ONEWEB-0275,2021-060AC,2026-06-27T04:26:26.936736,13.16594769,.00019635,87.9090,226.7903,96.5308,263.6046,0,U,48993,999,24087,.3999706E-4,.28E-6,0
ONEWEB-0276,2021-060AD,2026-06-27T05:14:19.072320,13.16595366,.00019378,87.9090,226.7832,93.2217,266.9135,0,U,48994,999,24089,.25822701E-3,.112E-5,0
ONEWEB-0277,2021-060AE,2026-06-27T03:43:08.537088,13.16594691,.00020134,87.9086,226.8040,100.9152,259.2206,0,U,48995,999,24087,.16085275E-3,.74E-6,0
ONEWEB-0278,2021-060AF,2026-06-27T03:29:26.278656,13.16593267,.00023144,87.9095,226.7968,96.4291,263.7103,0,U,48996,999,24100,.1914228E-3,.86E-6,0
ONEWEB-0279,2021-060AG,2026-06-27T03:40:50.558880,13.16595251,.00018294,87.9092,226.7934,99.6652,260.4686,0,U,48997,999,24093,.13525802E-4,.18E-6,0
ONEWEB-0280,2021-060AH,2026-06-27T04:02:30.319872,13.16594143,.00023099,87.9090,226.7945,103.6645,256.4743,0,U,48998,999,24087,.29307711E-4,.24E-6,0
ONEWEB-0281,2021-060AJ,2026-06-27T04:10:28.593984,13.16595424,.00021373,87.9090,226.7886,95.5152,264.6223,0,U,48999,999,24094,-.14601054E-3,-.43E-6,0
ONEWEB-0282,2021-060AK,2026-06-27T04:53:48.105600,13.16592871,.00020728,87.9088,226.7910,99.6612,260.4753,0,U,49000,999,24092,.89303646E-4,.47E-6,0
ONEWEB-0283,2021-060AL,2026-06-27T04:37:50.421216,13.16594331,.00019473,87.9087,226.7926,98.9629,261.1722,0,U,49001,999,24093,.71801832E-4,.4E-6,0
ONEWEB-0284,2021-060AM,2026-06-27T04:28:43.612896,13.16594368,.00023642,87.9091,226.7873,100.4775,259.6622,0,U,49002,999,24091,-.98713086E-4,-.25E-6,0
ONEWEB-0285,2021-075A,2026-06-27T04:47:44.554272,13.12432670,.0001805,87.8950,348.6709,95.8604,264.2730,0,U,49075,999,23652,-.55969218E-2,-.2E-4,0
ONEWEB-0286,2021-075B,2026-06-27T04:21:54.306720,13.12441024,.00019052,87.8941,348.6898,86.2069,273.9278,0,U,49076,999,23587,-.59696666E-3,-.202E-5,0
ONEWEB-0287,2021-075C,2026-06-27T06:23:16.005408,13.17649734,.0002176,87.9132,3.8604,81.7572,278.3806,0,U,49077,999,23495,.8843282E-4,.47E-6,0
ONEWEB-0288,2021-075D,2026-06-27T00:08:23.441568,13.12443311,.0002049,87.8951,348.7024,90.9883,269.1480,0,U,49078,999,23647,.10498982E-2,.39E-5,0
ONEWEB-0289,2021-075E,2026-06-27T01:50:55.304736,13.17648109,.00020823,87.9136,3.9156,100.0727,260.0639,0,U,49079,999,23550,-.27242336E-4,.2E-7,0
ONEWEB-0290,2021-075F,2026-06-27T06:40:17.864256,13.17648986,.00020976,87.9141,3.8476,103.5999,256.5367,0,U,49080,999,23494,-.88016957E-4,-.21E-6,0
ONEWEB-0291,2021-075G,2026-06-27T06:18:25.344576,13.17649418,.00022522,87.9133,3.8574,90.3053,269.8337,0,U,49081,999,23493,-.5810753E-4,-.1E-6,0
ONEWEB-0293,2021-075H,2026-06-27T05:05:31.082784,13.17649032,.00019811,87.9132,3.8706,93.3706,266.7652,0,U,49082,999,23495,-.17499144E-3,-.55E-6,0
ONEWEB-0294,2021-075J,2026-06-27T03:57:43.206624,13.12441064,.00020208,87.8953,348.6746,101.4395,258.6960,0,U,49083,999,23588,.75803709E-3,.285E-5,0
ONEWEB-0295,2021-075K,2026-06-27T05:04:18.551712,13.17649038,.00021708,87.9132,3.8747,86.7521,273.3859,0,U,49084,999,23491,-.93619256E-4,-.23E-6,0
ONEWEB-0296,2021-075L,2026-06-27T05:18:13.847904,13.12442861,.00021901,87.8954,348.6711,91.4323,268.7056,0,U,49085,999,23589,.53177859E-3,.204E-5,0
ONEWEB-0297,2021-075M,2026-06-27T04:12:20.844000,13.12440438,.0001917,87.8942,348.6896,90.4002,269.7346,0,U,49086,999,23649,-.16656131E-3,-.47E-6,0
ONEWEB-0298,2021-075N,2026-06-27T05:10:35.468256,13.17648225,.00018415,87.9134,3.8721,85.9364,274.1978,0,U,49087,999,23494,-.42199227E-4,-.4E-7,0
ONEWEB-0299,2021-075P,2026-06-27T05:12:48.008448,13.17650616,.00020009,87.9144,3.8529,86.0276,274.1085,0,U,49088,999,23492,-.18893127E-3,-.6E-6,0
ONEWEB-0300,2021-075Q,2026-06-27T04:01:22.262592,13.12440580,.00016502,87.8953,348.6716,81.4164,278.7152,0,U,49089,999,23651,.56821971E-3,.217E-5,0
ONEWEB-0301,2021-075R,2026-06-27T05:27:59.000544,13.12441322,.00015464,87.8949,348.6577,85.7670,274.3635,0,U,49090,999,23588,.11169889E-2,.415E-5,0
ONEWEB-0302,2021-075S,2026-06-27T05:08:27.289536,13.12444696,.0002072,87.8953,348.6726,98.2648,261.8716,0,U,49091,999,23586,.35457184E-4,.25E-6,0
ONEWEB-0304,2021-075T,2026-06-27T06:25:41.971296,13.17650327,.00020106,87.9132,3.8644,87.5823,272.5539,0,U,49092,999,23490,.28208863E-3,.122E-5,0
ONEWEB-0305,2021-075U,2026-06-27T00:47:56.429664,13.17649771,.00021872,87.9140,3.8962,83.1880,276.9500,0,U,49093,999,23490,-.6075548E-5,.11E-6,0
ONEWEB-0308,2021-075V,2026-06-27T04:58:41.409408,13.12442924,.00018027,87.8952,348.6660,93.0690,267.0645,0,U,49094,999,23587,-.12486921E-2,-.436E-5,0
