ONEWEB-0275             
1 48993U 21060AC  26178.18503399  .00000028  00000+0  39997-4 0  9994
2 48993  87.9090 226.7903 0001963  96.5308 263.6046 13.16594769240876
ONEWEB-0276             
1 48994U 21060AD  26178.21827630  .00000112  00000+0  25823-3 0  9992
2 48994  87.9090 226.7832 0001937  93.2217 266.9135 13.16595366240893
ONEWEB-0277             
1 48995U 21060AE  26178.15495992  .00000074  00000+0  16085-3 0  9995
2 48995  87.9086 226.8040 0002013 100.9152 259.2206 13.16594691240873
ONEWEB-0278             
1 48996U 21060AF  26178.14544304  .00000086  00000+0  19142-3 0  9997
2 48996  87.9095 226.7968 0002314  96.4291 263.7103 13.16593267241009
ONEWEB-0279             
1 48997U 21060AG  26178.15336295  .00000018  00000+0  13526-4 0  9993
2 48997  87.9092 226.7934 0001829  99.6652 260.4686 13.16595251240932
ONEWEB-0280             
1 48998U 21060AH  26178.16840648  .00000024  00000+0  29308-4 0  9999
2 48998  87.9090 226.7945 0002309 103.6645 256.4743 13.16594143240876
ONEWEB-0281             
1 48999U 21060AJ  26178.17394206 -.00000043  00000+0 -14601-3 0  9997
2 48999  87.9090 226.7886 0002137  95.5152 264.6223 13.16595424240947
ONEWEB-0282             
1 49000U 21060AK  26178.20402900  .00000047  00000+0  89304-4 0  9991
2 49000  87.9088 226.7910 0002072  99.6612 260.4753 13.16592871240923
ONEWEB-0283             
1 49001U 21060AL  26178.19294469  .00000040  00000+0  71802-4 0  9996
2 49001  87.9087 226.7926 0001947  98.9629 261.1722 13.16594331240938
ONEWEB-0284             
1 49002U 21060AM  26178.18661589 -.00000025  00000+0 -98713-4 0  9992
2 49002  87.9091 226.7873 0002364 100.4775 259.6622 13.16594368240919
ONEWEB-0285             
1 49075U 21075A   26178.19982123 -.00002000  00000+0 -55969-2 0  9998
2 49075  87.8950 348.6709 0001805  95.8604 264.2730 13.12432670236528
ONEWEB-0286             
1 49076U 21075B   26178.18187855 -.00000202  00000+0 -59697-3 0  9992
2 49076  87.8941 348.6898 0001905  86.2069 273.9278 13.12441024235872
ONEWEB-0287             
1 49077U 21075C   26178.26615747  .00000047  00000+0  88433-4 0  9994
2 49077  87.9132   3.8604 0002176  81.7572 278.3806 13.17649734234958
ONEWEB-0288             
1 49078U 21075D   26178.00582687  .00000390  00000+0  10499-2 0  9999
2 49078  87.8951 348.7024 0002049  90.9883 269.1480 13.12443311236473
ONEWEB-0289             
1 49079U 21075E   26178.07702899  .00000002  00000+0 -27242-4 0  9993
2 49079  87.9136   3.9156 0002082 100.0727 260.0639 13.17648109235509
ONEWEB-0290             
1 49080U 21075F   26178.27798454 -.00000021  00000+0 -88017-4 0  9998
2 49080  87.9141   3.8476 0002097 103.5999 256.5367 13.17648986234944
ONEWEB-0291             
1 49081U 21075G   26178.26279334 -.00000010  00000+0 -58108-4 0  9995
2 49081  87.9133   3.8574 0002252  90.3053 269.8337 13.17649418234936
ONEWEB-0293             
1 49082U 21075H   26178.21216531 -.00000055  00000+0 -17499-3 0  9997
2 49082  87.9132   3.8706 0001981  93.3706 266.7652 13.17649032234959
ONEWEB-0294             
1 49083U 21075J   26178.16508341  .00000285  00000+0  75804-3 0  9992
2 49083  87.8953 348.6746 0002020 101.4395 258.6960 13.12441064235889
ONEWEB-0295             
1 49084U 21075K   26178.21132583 -.00000023  00000+0 -93619-4 0  9997
2 49084  87.9132   3.8747 0002170  86.7521 273.3859 13.17649038234913
ONEWEB-0296             
1 49085U 21075L   26178.22099361  .00000204  00000+0  53178-3 0  9999
2 49085  87.8954 348.6711 0002190  91.4323 268.7056 13.12442861235896
ONEWEB-0297             
1 49086U 21075M   26178.17524125 -.00000047  00000+0 -16656-3 0  9992
2 49086  87.8942 348.6896 0001917  90.4002 269.7346 13.12440438236495
ONEWEB-0298             
1 49087U 21075N   26178.21568829 -.00000004  00000+0 -42199-4 0  9992
2 49087  87.9134   3.8721 0001841  85.9364 274.1978 13.17648225234941
ONEWEB-0299             
1 49088U 21075P   26178.21722232 -.00000060  00000+0 -18893-3 0  9998
2 49088  87.9144   3.8529 0002000  86.0276 274.1085 13.17650616234925
ONEWEB-0300             
1 49089U 21075Q   26178.16761878  .00000217  00000+0  56822-3 0  9998
2 49089  87.8953 348.6716 0001650  81.4164 278.7152 13.12440580236510
ONEWEB-0301             
1 49090U 21075R   26178.22776621  .00000415  00000+0  11170-2 0  9995
2 49090  87.8949 348.6577 0001546  85.7670 274.3635 13.12441322235887
ONEWEB-0302             
1 49091U 21075S   26178.21420474  .00000025  00000+0  35457-4 0  9990
2 49091  87.8953 348.6726 0002072  98.2648 261.8716 13.12444696235864
ONEWEB-0304             
1 49092U 21075T   26178.26784689  .00000122  00000+0  28209-3 0  9991
2 49092  87.9132   3.8644 0002010  87.5823 272.5539 13.17650327234903
ONEWEB-0305             
1 49093U 21075U   26178.03329201  .00000011  00000+0 -60755-5 0  9994
2 49093  87.9140   3.8962 0002187  83.1880 276.9500 13.17649771234903
ONEWEB-0308             
1 49094U 21075V   26178.20742372 -.00000436  00000+0 -12487-2 0  9990
2 49094  87.8952 348.6660 0001802  93.0690 267.0645 13.12442924235875
